[{"OBJECT_NAME":"STARLINK-35461","OBJECT_ID":"2025-236C","EPOCH":"2026-03-09T08:05:49.974144","MEAN_MOTION":15.30221657,"ECCENTRICITY":0.00010049,"INCLINATION":53.1584,"RA_OF_ASC_NODE":105.2978,"ARG_OF_PERICENTER":134.7805,"MEAN_ANOMALY":225.3277,"EPHEMERIS_TYPE":0,"CLASSIFICATION_TYPE":"U","NORAD_CAT_ID":66088,"ELEMENT_SET_NO":999,"REV_AT_EPOCH":2283,"BSTAR":0.0009985486,"MEAN_MOTION_DOT":0.00029352,"MEAN_MOTION_DDOT":0},{"OBJECT_NAME":"THORAD AGENA D DEB","OBJECT_ID":"1969-082CP","EPOCH":"2026-03-09T22:51:31.947840","MEAN_MOTION":15.31252047,"ECCENTRICITY":0.00108961,"INCLINATION":69.8927,"RA_OF_ASC_NODE":265.8646,"ARG_OF_PERICENTER":335.0972,"MEAN_ANOMALY":24.9676,"EPHEMERIS_TYPE":0,"CLASSIFICATION_TYPE":"U","NORAD_CAT_ID":4133,"ELEMENT_SET_NO":999,"REV_AT_EPOCH":97550,"BSTAR":0.0018489552,"MEAN_MOTION_DOT":0.00056347,"MEAN_MOTION_DDOT":0}]
